GLOBALSTAR M075         
1 37192U 10054E   25293.89748604 -.00000060  00000+0  24167-3 0  9998
2 37192  51.9925 158.7774 0000871  79.3729 294.1373 12.62269089691726
GLOBALSTAR M073         
1 37193U 10054F   25293.66004645 -.00000109  00000+0 -31507-4 0  9996
2 37193  52.0059  73.4129 0000736 119.2838 253.7253 12.62263679693683
GLOBALSTAR M083         
1 37739U 11033A   25293.45012038 -.00000090  00000+0  75807-4 0  9991
2 37739  51.9876  22.6096 0000653 125.8732 314.4454 12.62263717662673
GLOBALSTAR M088         
1 37740U 11033B   25293.76079433 -.00000091  00000+0  68940-4 0  9990
2 37740  52.0214 287.5150 0000492  66.1561 105.1475 12.62269091658252
GLOBALSTAR M091         
1 37741U 11033C   25293.90220689 -.00000097  00000+0  37156-4 0  9999
2 37741  51.9987 250.4017 0000668  77.1820 317.6208 12.62260770659063
GLOBALSTAR M085         
1 37742U 11033D   25293.89804396 -.00000077  00000+0  14729-3 0  9999
2 37742  52.0115 201.4982 0000874  84.6001 351.2280 12.62265846659578
GLOBALSTAR M081         
1 37743U 11033E   25293.14826487 -.00000086  00000+0  96706-4 0  9999
2 37743  51.9950 206.4896 0000627  80.4915  66.2860 12.62269350659624
GLOBALSTAR M089         
1 37744U 11033F   25293.87088145 -.00000054  00000+0  27676-3 0  9995
2 37744  51.9914 158.4937 0000729  63.8315 309.0019 12.62271975660564
